ONEWEB-0588             
1 55153U 23004P   25337.34636983  .00000016  00000+0  88393-5 0  9992
2 55153  87.9182  14.3833 0001333  92.8774 267.2510 13.18685571143887
ONEWEB-0598             
1 55154U 23004Q   25337.30645090  .00000582  00000+0  16065-2 0  9990
2 55154  87.8859  60.0831 0001743  82.4307 277.7019 13.11417453140226
ONEWEB-0599             
1 55155U 23004R   25337.18552274 -.00000001  00000+0 -36697-4 0  9991
2 55155  87.9122  44.8452 0001868  95.3873 264.7471 13.17648604141677
ONEWEB-0614             
1 55156U 23004S   25337.30137081  .00000633  00000+0  17497-2 0  9995
2 55156  87.8858  60.0933 0001451 114.3628 245.7652 13.11417978140160
ONEWEB-0616             
1 55157U 23004T   25337.22770994  .00000032  00000+0  49385-4 0  9999
2 55157  87.9130  44.8274 0002717  98.3868 261.7572 13.17648801141893
ONEWEB-0617             
1 55158U 23004U   25337.21319811  .00000350  00000+0  95216-3 0  9992
2 55158  87.8861  60.0898 0001281 105.4388 254.6882 13.11418841140176
ONEWEB-0618             
1 55159U 23004V   25337.22267162  .00012003  00000+0  72723-3 0  9991
2 55159  86.9088 257.0837 0011306 312.1073  47.9203 15.10424830152658
ONEWEB-0619             
1 55160U 23004W   25337.18383860 -.00000017  00000+0 -75714-4 0  9990
2 55160  87.9126  44.8106 0001985 114.0818 246.0521 13.17648529141788
ONEWEB-0620             
1 55161U 23004X   25337.20810981  .00000117  00000+0  29536-3 0  9992
2 55161  87.8863  60.1105 0001488  96.8802 263.2495 13.11419428140142
ONEWEB-0621             
1 55162U 23004Y   25337.15893964  .00000393  00000+0  10739-2 0  9999
2 55162  87.8867  60.0904 0001664 111.1765 248.9540 13.11417017140118
ONEWEB-0622             
1 55163U 23004Z   25337.24032555  .00000196  00000+0  51680-3 0  9993
2 55163  87.8860  60.0841 0000967 121.7582 238.3641 13.11413867140115
ONEWEB-0623             
1 55164U 23004AA  25337.17877892 -.00000043  00000+0 -14463-3 0  9998
2 55164  87.9119  44.8619 0001419 128.3427 231.7833 13.17650737141779
ONEWEB-0624             
1 55165U 23004AB  25337.18481081 -.00000227  00000+0 -66110-3 0  9991
2 55165  87.8942  29.5621 0001583 109.2779 250.8521 13.12921270142355
ONEWEB-0625             
1 55166U 23004AC  25337.16864415  .00000051  00000+0  97649-4 0  9991
2 55166  87.9117  44.8586 0001900 101.1296 259.0049 13.17651688141767
ONEWEB-0626             
1 55167U 23004AD  25337.15852836  .00000095  00000+0  21160-3 0  9997
2 55167  87.9118  44.8603 0001646  84.5822 275.5497 13.17648592141765
ONEWEB-0627             
1 55168U 23004AE  25337.22265085  .00000028  00000+0  39194-4 0  9993
2 55168  87.9118  44.8483 0001363 117.9014 242.2256 13.17649411141778
ONEWEB-0628             
1 55169U 23004AF  25337.16958772 -.00000247  00000+0 -72174-3 0  9998
2 55169  87.8951  29.5898 0001670 123.5044 236.6244 13.12440989142320
