[{"OBJECT_NAME":"ONEWEB-0588","OBJECT_ID":"2023-004P","EPOCH":"2025-12-03T08:18:46.353312","MEAN_MOTION":13.18685571,"ECCENTRICITY":0.00013332,"INCLINATION":87.9182,"RA_OF_ASC_NODE":14.3833,"ARG_OF_PERICENTER":92.8774,"MEAN_ANOMALY":267.251,"EPHEMERIS_TYPE":0,"CLASSIFICATION_TYPE":"U","NORAD_CAT_ID":55153,"ELEMENT_SET_NO":999,"REV_AT_EPOCH":14388,"BSTAR":8.839331e-6,"MEAN_MOTION_DOT":1.6e-7,"MEAN_MOTION_DDOT":0},{"OBJECT_NAME":"ONEWEB-0598","OBJECT_ID":"2023-004Q","EPOCH":"2025-12-03T07:21:17.357760","MEAN_MOTION":13.11417453,"ECCENTRICITY":0.00017436,"INCLINATION":87.8859,"RA_OF_ASC_NODE":60.0831,"ARG_OF_PERICENTER":82.4307,"MEAN_ANOMALY":277.7019,"EPHEMERIS_TYPE":0,"CLASSIFICATION_TYPE":"U","NORAD_CAT_ID":55154,"ELEMENT_SET_NO":999,"REV_AT_EPOCH":14022,"BSTAR":0.001606544,"MEAN_MOTION_DOT":5.82e-6,"MEAN_MOTION_DDOT":0},{"OBJECT_NAME":"ONEWEB-0599","OBJECT_ID":"2023-004R","EPOCH":"2025-12-03T04:27:09.164736","MEAN_MOTION":13.17648604,"ECCENTRICITY":0.00018682,"INCLINATION":87.9122,"RA_OF_ASC_NODE":44.8452,"ARG_OF_PERICENTER":95.3873,"MEAN_ANOMALY":264.7471,"EPHEMERIS_TYPE":0,"CLASSIFICATION_TYPE":"U","NORAD_CAT_ID":55155,"ELEMENT_SET_NO":999,"REV_AT_EPOCH":14167,"BSTAR":-3.6696801e-5,"MEAN_MOTION_DOT":-1.0e-8,"MEAN_MOTION_DDOT":0},{"OBJECT_NAME":"ONEWEB-0614","OBJECT_ID":"2023-004S","EPOCH":"2025-12-03T07:13:58.437984","MEAN_MOTION":13.11417978,"ECCENTRICITY":0.0001451,"INCLINATION":87.8858,"RA_OF_ASC_NODE":60.0933,"ARG_OF_PERICENTER":114.3628,"MEAN_ANOMALY":245.7652,"EPHEMERIS_TYPE":0,"CLASSIFICATION_TYPE":"U","NORAD_CAT_ID":55156,"ELEMENT_SET_NO":999,"REV_AT_EPOCH":14016,"BSTAR":0.0017496842,"MEAN_MOTION_DOT":6.33e-6,"MEAN_MOTION_DDOT":0},{"OBJECT_NAME":"ONEWEB-0616","OBJECT_ID":"2023-004T","EPOCH":"2025-12-03T05:27:54.138816","MEAN_MOTION":13.17648801,"ECCENTRICITY":0.00027178,"INCLINATION":87.913,"RA_OF_ASC_NODE":44.8274,"ARG_OF_PERICENTER":98.3868,"MEAN_ANOMALY":261.7572,"EPHEMERIS_TYPE":0,"CLASSIFICATION_TYPE":"U","NORAD_CAT_ID":55157,"ELEMENT_SET_NO":999,"REV_AT_EPOCH":14189,"BSTAR":4.9385445e-5,"MEAN_MOTION_DOT":3.2e-7,"MEAN_MOTION_DDOT":0},{"OBJECT_NAME":"ONEWEB-0617","OBJECT_ID":"2023-004U","EPOCH":"2025-12-03T05:07:00.316704","MEAN_MOTION":13.11418841,"ECCENTRICITY":0.00012812,"INCLINATION":87.8861,"RA_OF_ASC_NODE":60.0898,"ARG_OF_PERICENTER":105.4388,"MEAN_ANOMALY":254.6882,"EPHEMERIS_TYPE":0,"CLASSIFICATION_TYPE":"U","NORAD_CAT_ID":55158,"ELEMENT_SET_NO":999,"REV_AT_EPOCH":14017,"BSTAR":0.00095216204,"MEAN_MOTION_DOT":3.5e-6,"MEAN_MOTION_DDOT":0},{"OBJECT_NAME":"ONEWEB-0618","OBJECT_ID":"2023-004V","EPOCH":"2025-12-03T05:20:38.827968","MEAN_MOTION":15.1042483,"ECCENTRICITY":0.00113063,"INCLINATION":86.9088,"RA_OF_ASC_NODE":257.0837,"ARG_OF_PERICENTER":312.1073,"MEAN_ANOMALY":47.9203,"EPHEMERIS_TYPE":0,"CLASSIFICATION_TYPE":"U","NORAD_CAT_ID":55159,"ELEMENT_SET_NO":999,"REV_AT_EPOCH":15265,"BSTAR":0.00072723364,"MEAN_MOTION_DOT":0.00012003,"MEAN_MOTION_DDOT":0},{"OBJECT_NAME":"ONEWEB-0619","OBJECT_ID":"2023-004W","EPOCH":"2025-12-03T04:24:43.655040","MEAN_MOTION":13.17648529,"ECCENTRICITY":0.00019855,"INCLINATION":87.9126,"RA_OF_ASC_NODE":44.8106,"ARG_OF_PERICENTER":114.0818,"MEAN_ANOMALY":246.0521,"EPHEMERIS_TYPE":0,"CLASSIFICATION_TYPE":"U","NORAD_CAT_ID":55160,"ELEMENT_SET_NO":999,"REV_AT_EPOCH":14178,"BSTAR":-7.5713696e-5,"MEAN_MOTION_DOT":-1.7e-7,"MEAN_MOTION_DDOT":0},{"OBJECT_NAME":"ONEWEB-0620","OBJECT_ID":"2023-004X","EPOCH":"2025-12-03T04:59:40.687584","MEAN_MOTION":13.11419428,"ECCENTRICITY":0.00014886,"INCLINATION":87.8863,"RA_OF_ASC_NODE":60.1105,"ARG_OF_PERICENTER":96.8802,"MEAN_ANOMALY":263.2495,"EPHEMERIS_TYPE":0,"CLASSIFICATION_TYPE":"U","NORAD_CAT_ID":55161,"ELEMENT_SET_NO":999,"REV_AT_EPOCH":14014,"BSTAR":0.00029535592,"MEAN_MOTION_DOT":1.17e-6,"MEAN_MOTION_DDOT":0},{"OBJECT_NAME":"ONEWEB-0621","OBJECT_ID":"2023-004Y","EPOCH":"2025-12-03T03:48:52.384896","MEAN_MOTION":13.11417017,"ECCENTRICITY":0.00016642,"INCLINATION":87.8867,"RA_OF_ASC_NODE":60.0904,"ARG_OF_PERICENTER":111.1765,"MEAN_ANOMALY":248.954,"EPHEMERIS_TYPE":0,"CLASSIFICATION_TYPE":"U","NORAD_CAT_ID":55162,"ELEMENT_SET_NO":999,"REV_AT_EPOCH":14011,"BSTAR":0.001073872,"MEAN_MOTION_DOT":3.93e-6,"MEAN_MOTION_DDOT":0},{"OBJECT_NAME":"ONEWEB-0622","OBJECT_ID":"2023-004Z","EPOCH":"2025-12-03T05:46:04.127520","MEAN_MOTION":13.11413867,"ECCENTRICITY":9.678e-5,"INCLINATION":87.886,"RA_OF_ASC_NODE":60.0841,"ARG_OF_PERICENTER":121.7582,"MEAN_ANOMALY":238.3641,"EPHEMERIS_TYPE":0,"CLASSIFICATION_TYPE":"U","NORAD_CAT_ID":55163,"ELEMENT_SET_NO":999,"REV_AT_EPOCH":14011,"BSTAR":0.00051680061,"MEAN_MOTION_DOT":1.96e-6,"MEAN_MOTION_DDOT":0},{"OBJECT_NAME":"ONEWEB-0623","OBJECT_ID":"2023-004AA","EPOCH":"2025-12-03T04:17:26.498688","MEAN_MOTION":13.17650737,"ECCENTRICITY":0.00014196,"INCLINATION":87.9119,"RA_OF_ASC_NODE":44.8619,"ARG_OF_PERICENTER":128.3427,"MEAN_ANOMALY":231.7833,"EPHEMERIS_TYPE":0,"CLASSIFICATION_TYPE":"U","NORAD_CAT_ID":55164,"ELEMENT_SET_NO":999,"REV_AT_EPOCH":14177,"BSTAR":-0.00014462945,"MEAN_MOTION_DOT":-4.3e-7,"MEAN_MOTION_DDOT":0},{"OBJECT_NAME":"ONEWEB-0624","OBJECT_ID":"2023-004AB","EPOCH":"2025-12-03T04:26:07.653984","MEAN_MOTION":13.1292127,"ECCENTRICITY":0.00015839,"INCLINATION":87.8942,"RA_OF_ASC_NODE":29.5621,"ARG_OF_PERICENTER":109.2779,"MEAN_ANOMALY":250.8521,"EPHEMERIS_TYPE":0,"CLASSIFICATION_TYPE":"U","NORAD_CAT_ID":55165,"ELEMENT_SET_NO":999,"REV_AT_EPOCH":14235,"BSTAR":-0.00066110309,"MEAN_MOTION_DOT":-2.27e-6,"MEAN_MOTION_DDOT":0},{"OBJECT_NAME":"ONEWEB-0625","OBJECT_ID":"2023-004AC","EPOCH":"2025-12-03T04:02:50.854560","MEAN_MOTION":13.17651688,"ECCENTRICITY":0.00019002,"INCLINATION":87.9117,"RA_OF_ASC_NODE":44.8586,"ARG_OF_PERICENTER":101.1296,"MEAN_ANOMALY":259.0049,"EPHEMERIS_TYPE":0,"CLASSIFICATION_TYPE":"U","NORAD_CAT_ID":55166,"ELEMENT_SET_NO":999,"REV_AT_EPOCH":14176,"BSTAR":9.764891e-5,"MEAN_MOTION_DOT":5.1e-7,"MEAN_MOTION_DDOT":0},{"OBJECT_NAME":"ONEWEB-0626","OBJECT_ID":"2023-004AD","EPOCH":"2025-12-03T03:48:16.850304","MEAN_MOTION":13.17648592,"ECCENTRICITY":0.00016468,"INCLINATION":87.9118,"RA_OF_ASC_NODE":44.8603,"ARG_OF_PERICENTER":84.5822,"MEAN_ANOMALY":275.5497,"EPHEMERIS_TYPE":0,"CLASSIFICATION_TYPE":"U","NORAD_CAT_ID":55167,"ELEMENT_SET_NO":999,"REV_AT_EPOCH":14176,"BSTAR":0.00021159751,"MEAN_MOTION_DOT":9.5e-7,"MEAN_MOTION_DDOT":0},{"OBJECT_NAME":"ONEWEB-0627","OBJECT_ID":"2023-004AE","EPOCH":"2025-12-03T05:20:37.033440","MEAN_MOTION":13.17649411,"ECCENTRICITY":0.0001363,"INCLINATION":87.9118,"RA_OF_ASC_NODE":44.8483,"ARG_OF_PERICENTER":117.9014,"MEAN_ANOMALY":242.2256,"EPHEMERIS_TYPE":0,"CLASSIFICATION_TYPE":"U","NORAD_CAT_ID":55168,"ELEMENT_SET_NO":999,"REV_AT_EPOCH":14177,"BSTAR":3.919417e-5,"MEAN_MOTION_DOT":2.8e-7,"MEAN_MOTION_DDOT":0},{"OBJECT_NAME":"ONEWEB-0628","OBJECT_ID":"2023-004AF","EPOCH":"2025-12-03T04:04:12.379008","MEAN_MOTION":13.12440989,"ECCENTRICITY":0.00016706,"INCLINATION":87.8951,"RA_OF_ASC_NODE":29.5898,"ARG_OF_PERICENTER":123.5044,"MEAN_ANOMALY":236.6244,"EPHEMERIS_TYPE":0,"CLASSIFICATION_TYPE":"U","NORAD_CAT_ID":55169,"ELEMENT_SET_NO":999,"REV_AT_EPOCH":14232,"BSTAR":-0.00072173775,"MEAN_MOTION_DOT":-2.47e-6,"MEAN_MOTION_DDOT":0}]
